CUTE-1 (CO-55)          
1 27844U 03031E   26137.76007261  .00000175  00000+0  94640-4 0  9999
2 27844  98.6745 146.7015 0008283 274.5188  85.5045 14.24315356187340
CUBESAT XI-IV (CO-57)   
1 27848U 03031J   26138.01443688  .00000147  00000+0  83815-4 0  9990
2 27848  98.6777 146.6897 0008292 295.0772  64.9546 14.23603269187083
CUBESAT XI-V            
1 28895U 05043F   26138.16557961  .00000769  00000+0  12922-3 0  9994
2 28895  98.2952 293.1644 0012909 303.4766  56.5207 14.72543889 97336
CUTE-1.7+APD II (CO-65) 
1 32785U 08021C   26138.14963943  .00003437  00000+0  22059-3 0  9992
2 32785  97.8269 118.9543 0010426 124.7138 235.5074 15.09140414980662
CANX-2                  
1 32790U 08021H   26138.17971649  .00001687  00000+0  12209-3 0  9994
2 32790  97.8621 117.3840 0011526 138.4160 221.7945 15.05377493980290
SEEDS II (CO-66)        
1 32791U 08021J   26137.76721970  .00010760  00000+0  35478-3 0  9994
2 32791  97.7520 134.2408 0004845  75.1413 285.0364 15.31630012982636
SWISSCUBE               
1 35932U 09051B   26138.20119244  .00000608  00000+0  12997-3 0  9994
2 35932  98.4055  45.5658 0005837 316.1214  43.9522 14.62417348884778
BEESAT-1                
1 35933U 09051C   26137.98976037  .00000528  00000+0  11590-3 0  9999
2 35933  98.3984  45.0490 0004674 336.1403  23.9580 14.61665995884772
ITUPSAT1                
1 35935U 09051E   26138.02277666  .00000488  00000+0  11087-3 0  9995
2 35935  98.4069  44.3063 0007081 343.1047  16.9915 14.60390489884332
TISAT 1                 
1 36799U 10035E   26138.11924816  .00013752  00000+0  46921-3 0  9997
2 36799  98.0707  82.0343 0003063  43.4108 316.7372 15.30473047863100
AEROCUBE 4.5A           
1 38767U 12048K   26138.15204588  .00123137  00000+0  66990-3 0  9998
2 38767  64.6276 135.3037 0018417 216.4963 143.4937 15.79129633367898
STRAND-1                
1 39090U 13009E   26138.04883507  .00000162  00000+0  69049-4 0  9999
2 39090  98.3916 319.0265 0007896 328.4541  31.6172 14.37143901692732
BRITE-AUSTRIA           
1 39091U 13009F   26138.04876435  .00000100  00000+0  48741-4 0  9990
2 39091  98.3987 318.2318 0009615 336.8248  23.2504 14.36529055692721
NEE-01 PEGASO           
1 39151U 13018B   26137.64912235  .00001163  00000+0  11629-3 0  9995
2 39151  98.1183 280.8011 0011331 263.6771  96.3158 14.93494868706148
POPACS 2                
1 39269U 13055E   26138.10789972  .00009310  00000+0  16011-3 0  9990
2 39269  80.9910 178.6083 0418605 290.5617  65.1160 14.90508130658734
POPACS 3                
1 39270U 13055F   26138.08290712  .00012355  00000+0  29389-3 0  9993
2 39270  81.0018 261.8052 0554786 161.5379 200.6875 14.55366310634175
ZACUBE-1 (TSHEPISOSAT)  
1 39417U 13066B   26138.14345683  .00003149  00000+0  24772-3 0  9995
2 39417  97.8123 100.3176 0041199 353.8882   6.1833 15.00938209676226
WNISAT-1                
1 39423U 13066H   26137.87831047  .00000290  00000+0  62058-4 0  9999
2 39423  97.7164 289.1923 0162332 327.8019  31.3348 14.58021204662315
TRITON-1                
1 39427U 13066M   26138.17551586  .00002631  00000+0  31953-3 0  9994
2 39427  97.8273  48.6664 0089596 333.2305  26.4297 14.81568135669646
GOMX-1                  
1 39430U 13066Q   26138.15514669  .00001296  00000+0  20088-3 0  9990
2 39430  97.6500 340.5125 0128873 173.2938 187.0032 14.69330105665505
CUBEBUG-2 (LO-74)       
1 39440U 13066AA  26138.11766678  .00001926  00000+0  18249-3 0  9992
2 39440  97.8896  86.9790 0059161 126.1007 234.5710 14.93509519672505
NEE-02 KRYSAOR          
1 39441U 13066AB  26137.58256009  .00000936  00000+0  10813-3 0  9994
2 39441  97.8884  77.0216 0066455 168.7508 191.5212 14.86492155671652
FUNCUBE-1 (AO-73)       
1 39444U 13066AE  26137.49295488  .00004330  00000+0  27395-3 0  9996
2 39444  97.8263 108.3115 0034922 310.4162  49.4020 15.09062717675035
UWE-3                   
1 39446U 13066AG  26137.59998602  .00002704  00000+0  23594-3 0  9997
2 39446  97.8682  93.4792 0050496  62.4412 298.1926 14.96740642673001
BRITE-CA1 (TORONTO)     
1 40020U 14033L   26137.80217986  .00000387  00000+0  65917-4 0  9996
2 40020  97.9696 267.2984 0078919  15.2242 345.1314 14.72631779637747
DUCHIFAT-1              
1 40021U 14033M   26138.09635439  .00057217  00000+0  73529-3 0  9997
2 40021  98.0495 193.1751 0006144 173.8431 186.2900 15.58902062651054
NANOSATC-BR1            
1 40024U 14033Q   26138.07395344  .00011102  00000+0  38005-3 0  9999
2 40024  98.0738 167.8159 0001654 293.1752  66.9312 15.30427931649370
QB50P1                  
1 40025U 14033R   26137.76217279  .00005841  00000+0  29289-3 0  9992
2 40025  98.0972 146.7868 0007857 341.5889  18.5058 15.17749645648412
QB50P2                  
1 40032U 14033Y   26137.78295298  .00004552  00000+0  24954-3 0  9991
2 40032  98.0752 132.7822 0005671 281.8283  78.2311 15.14735983648060
PERSEUS-M2              
1 40037U 14033AD  26138.15428240  .00001934  00000+0  18030-3 0  9992
2 40037  97.9956  88.0889 0013300  44.9106 315.3188 14.95414507646299
